NORAD_CAT_ID,OBJECT_NAME,OBJECT_TYPE,EPOCH,MEAN_MOTION,ECCENTRICITY,INCLINATION,RA_OF_ASC_NODE,ARG_OF_PERICENTER,MEAN_ANOMALY,BSTAR,MEAN_MOTION_DOT,MEAN_MOTION_DDOT,TLE_LINE0,TLE_LINE1,TLE_LINE2,SEMIMAJOR_AXIS,PERIOD,APOGEE,PERIGEE,DECAYED
55418.0,STARLINK-5030,PAYLOAD,2023-09-08 02:10:55,14.98323505,0.0003614,69.9996,227.9726,268.0778,91.9967,-1.7503e-05,-3.02e-06,0.0,0 STARLINK-5030,1 55418U 23014AD  23251.09091901 -.00000302  00000-0 -17503-4 0  9992,2 55418  69.9996 227.9726 0003614 268.0778  91.9967 14.98323505 33771,6950.213,96.107,574.59,569.566,0.0
55418.0,STARLINK-5030,PAYLOAD,2023-09-08 10:11:35,14.98326311,0.0003471,69.9998,227.1313,267.7871,92.2891,1.2035e-05,5.1e-07,0.0,0 STARLINK-5030,1 55418U 23014AD  23251.42471823  .00000051  00000-0  12035-4 0  9998,2 55418  69.9998 227.1313 0003471 267.7871  92.2891 14.98326311 34766,6950.204,96.107,574.482,569.657,0.0
55418.0,STARLINK-5030,PAYLOAD,2023-09-09 02:12:56,14.98325002,0.0003614,69.9995,225.4478,267.7961,92.2784,0.00019613,2.248e-05,0.0,0 STARLINK-5030,1 55418U 23014AD  23252.09231576  .00002248  00000-0  19613-3 0  9999,2 55418  69.9995 225.4478 0003614 267.7961  92.2784 14.98325002 33929,6950.208,96.107,574.585,569.562,0.0
55418.0,STARLINK-5030,PAYLOAD,2023-09-09 08:37:27,14.98331895,0.0003603,69.9996,224.7744,267.7771,92.2976,0.00020185,2.316e-05,0.0,0 STARLINK-5030,1 55418U 23014AD  23252.35935172  .00002316  00000-0  20185-3 0  9993,2 55418  69.9996 224.7744 0003603 267.7771  92.2976 14.98331895 34904,6950.187,96.107,574.556,569.548,0.0
55418.0,STARLINK-5030,PAYLOAD,2023-09-09 15:02:00,14.98334715,0.0003611,69.9997,224.1011,267.6977,92.3769,0.00021309,2.451e-05,0.0,0 STARLINK-5030,1 55418U 23014AD  23252.62638904  .00002451  00000-0  21309-3 0  9995,2 55418  69.9997 224.1011 0003611 267.6977  92.3769 14.98334715 34008,6950.178,96.107,574.553,569.534,0.0
55418.0,STARLINK-5030,PAYLOAD,2023-09-10 08:39:27,14.98363956,0.0003554,69.9999,222.2498,269.2298,90.8454,-0.00010323,-1.326e-05,0.0,0 STARLINK-5030,1 55418U 23014AD  23253.36073181 -.00001326  00000-0 -10323-3 0  9993,2 55418  69.9999 222.2498 0003554 269.2298  90.8454 14.98363956 34113,6950.088,96.105,574.423,569.483,0.0
55418.0,STARLINK-5030,PAYLOAD,2023-09-11 07:05:21,14.98335474,0.0003411,70.0002,219.8936,268.3517,91.7251,-7.9279e-05,-1.039e-05,0.0,0 STARLINK-5030,1 55418U 23014AD  23254.29538599 -.00001039  00000-0 -79279-4 0  9992,2 55418  70.0002 219.8936 0003411 268.3517  91.7251 14.98335474 34250,6950.176,96.107,574.412,569.67,0.0
55418.0,STARLINK-5030,PAYLOAD,2023-09-12 07:07:21,14.98342196,0.0003348,70.0004,217.3693,266.3313,93.7463,-7.5347e-05,-9.92e-06,0.0,0 STARLINK-5030,1 55418U 23014AD  23255.29677590 -.00000992  00000-0 -75347-4 0  9997,2 55418  70.0004 217.3693 0003348 266.3313  93.7463 14.98342196 34409,6950.155,96.106,574.347,569.693,0.0
55418.0,STARLINK-5030,PAYLOAD,2023-09-13 02:20:58,14.98328846,0.0003294,70.0006,215.3493,267.1636,92.9146,5.6152e-05,5.77e-06,0.0,0 STARLINK-5030,1 55418U 23014AD  23256.09789829  .00000577  00000-0  56152-4 0  9995,2 55418  70.0006 215.3493 0003294 267.1636  92.9146 14.98328846 34522,6950.196,96.107,574.351,569.772,0.0
55418.0,STARLINK-5030,PAYLOAD,2023-09-13 07:09:22,14.98333716,0.0003078,70.0008,214.8442,263.083,96.9979,9.3382e-05,1.021e-05,0.0,0 STARLINK-5030,1 55418U 23014AD  23256.29817392  .00001021  00000-0  93382-4 0  9995,2 55418  70.0008 214.8442 0003078 263.0830  96.9979 14.98333716 35490,6950.181,96.107,574.186,569.907,0.0
55418.0,STARLINK-5030,PAYLOAD,2023-09-13 15:10:03,14.98328808,0.0002625,70.0009,214.0033,277.4492,82.6369,-2.9806e-06,-1.28e-06,0.0,0 STARLINK-5030,1 55418U 23014AD  23256.63198111 -.00000128  00000-0 -29806-5 0  9994,2 55418  70.0009 214.0033 0002625 277.4492  82.6369 14.98328808 35546,6950.197,96.107,573.886,570.237,0.0
55418.0,STARLINK-5030,PAYLOAD,2023-09-14 02:22:59,14.9832541,0.0003091,70.0005,212.8236,269.5398,90.5407,-7.4587e-05,-9.83e-06,0.0,0 STARLINK-5030,1 55418U 23014AD  23257.09930392 -.00000983  00000-0 -74587-4 0  9994,2 55418  70.0005 212.8236 0003091 269.5398  90.5407 14.98325410 34678,6950.207,96.107,574.22,569.924,0.0
55418.0,STARLINK-5030,PAYLOAD,2023-09-14 07:11:24,14.98323156,0.0003152,70.001,212.319,269.102,90.9778,-0.00011883,-1.51e-05,0.0,0 STARLINK-5030,1 55418U 23014AD  23257.29958735 -.00001510  00000-0 -11883-3 0  9993,2 55418  70.0010 212.3190 0003152 269.1020  90.9778 14.98323156 35642,6950.214,96.107,574.27,569.888,0.0
55418.0,STARLINK-5030,PAYLOAD,2023-09-14 21:36:36,14.9833397,0.0003443,70.0,210.8037,268.5028,91.5736,-6.8114e-05,-9.06e-06,0.0,0 STARLINK-5030,1 55418U 23014AD  23257.90042051 -.00000906  00000-0 -68114-4 0  9994,2 55418  70.0000 210.8037 0003443 268.5028  91.5736 14.98333970 35734,6950.181,96.107,574.439,569.653,0.0
55418.0,STARLINK-5030,PAYLOAD,2023-09-15 02:25:00,14.98333897,0.0003028,70.0012,210.3001,262.2161,97.8655,9.3734e-07,-8.2e-07,0.0,0 STARLINK-5030,1 55418U 23014AD  23258.10069806 -.00000082  00000-0  93734-6 0  9996,2 55418  70.0012 210.3001 0003028 262.2161  97.8655 14.98333897 34827,6950.181,96.107,574.15,569.941,0.0
55418.0,STARLINK-5030,PAYLOAD,2023-09-15 07:13:24,14.98329662,0.0002904,70.0006,209.795,261.7405,98.3424,0.00021683,2.495e-05,0.0,0 STARLINK-5030,1 55418U 23014AD  23258.30097494  .00002495  00000-0  21683-3 0  9992,2 55418  70.0006 209.7950 0002904 261.7405  98.3424 14.98329662 35794,6950.194,96.107,574.077,570.041,0.0
55418.0,STARLINK-5030,PAYLOAD,2023-09-16 02:27:01,14.98324783,0.0003175,70.0013,207.7766,271.2565,88.8231,0.00012338,1.379e-05,0.0,0 STARLINK-5030,1 55418U 23014AD  23259.10209930  .00001379  00000-0  12338-3 0  9998,2 55418  70.0013 207.7766 0003175 271.2565  88.8231 14.98324783 34977,6950.209,96.107,574.281,569.867,0.0
55418.0,STARLINK-5030,PAYLOAD,2023-09-16 07:15:25,14.98328107,0.0002949,70.0014,207.2716,262.531,97.5514,8.194e-05,8.85e-06,0.0,0 STARLINK-5030,1 55418U 23014AD  23259.30237838  .00000885  00000-0  81940-4 0  9995,2 55418  70.0014 207.2716 0002949 262.5310  97.5514 14.98328107 35940,6950.199,96.107,574.113,570.014,0.0
55418.0,STARLINK-5030,PAYLOAD,2023-09-17 05:41:18,14.98329562,0.0003006,70.0016,204.915,261.9079,98.1739,-4.3965e-05,-6.18e-06,0.0,0 STARLINK-5030,1 55418U 23014AD  23260.23702059 -.00000618  00000-0 -43965-4 0  9992,2 55418  70.0016 204.9150 0003006 261.9079  98.1739 14.98329562 35142,6950.194,96.107,574.148,569.97,0.0
55418.0,STARLINK-5030,PAYLOAD,2023-09-18 05:43:19,14.98330104,0.0003036,70.0014,202.3895,266.7354,93.3458,8.5132e-05,9.23e-06,0.0,0 STARLINK-5030,1 55418U 23014AD  23261.23841613  .00000923  00000-0  85132-4 0  9992,2 55418  70.0014 202.3895 0003036 266.7354  93.3458 14.98330104 35295,6950.193,96.107,574.168,569.947,0.0
55418.0,STARLINK-5030,PAYLOAD,2023-09-18 20:08:31,14.98330761,0.0003067,70.0012,200.8746,269.5154,90.5654,4.3373e-05,4.25e-06,0.0,0 STARLINK-5030,1 55418U 23014AD  23261.83925589  .00000425  00000-0  43373-4 0  9991,2 55418  70.0012 200.8746 0003067 269.5154  90.5654 14.98330761 36325,6950.191,96.107,574.187,569.924,0.0
55418.0,STARLINK-5030,PAYLOAD,2023-09-19 05:45:19,14.9834101,0.0003016,70.0014,199.8654,269.727,90.3544,0.0001195,1.334e-05,0.0,0 STARLINK-5030,1 55418U 23014AD  23262.23980627  .00001334  00000-0  11950-3 0  9995,2 55418  70.0014 199.8654 0003016 269.7270  90.3544 14.98341010 35444,6950.159,96.106,574.12,569.928,0.0
55418.0,STARLINK-5030,PAYLOAD,2023-09-19 18:34:24,14.983305,0.0002746,70.0024,198.52,267.4271,92.6573,1.403e-05,7.4e-07,0.0,0 STARLINK-5030,1 55418U 23014AD  23262.77389429  .00000074  00000-0  14030-4 0  9990,2 55418  70.0024 198.5200 0002746 267.4271  92.6573 14.98330500 35521,6950.191,96.107,573.965,570.148,0.0
55418.0,STARLINK-5030,PAYLOAD,2023-09-20 05:47:20,14.98330927,0.000292,70.0018,197.3401,270.3178,89.7646,7.8031e-06,0.0,0.0,0 STARLINK-5030,1 55418U 23014AD  23263.24121451  .00000000  00000-0  78031-5 0  9993,2 55418  70.0018 197.3401 0002920 270.3178  89.7646 14.98330927 36530,6950.19,96.107,574.084,570.026,0.0
55418.0,STARLINK-5030,PAYLOAD,2023-09-20 18:36:26,14.98324188,0.0002425,70.0023,195.9953,271.6149,88.4732,-9.8791e-05,-1.271e-05,0.0,0 STARLINK-5030,1 55418U 23014AD  23263.77530407 -.00001271  00000-0 -98791-4 0  9993,2 55418  70.0023 195.9953 0002425 271.6149  88.4732 14.98324188 35672,6950.211,96.107,573.761,570.39,0.0
55418.0,STARLINK-5030,PAYLOAD,2023-09-20 21:48:42,14.983211,0.000291,70.0008,195.6565,267.1564,92.9262,-0.00015703,-1.966e-05,0.0,0 STARLINK-5030,1 55418U 23014AD  23263.90882719 -.00001966  00000-0 -15703-3 0  9996,2 55418  70.0008 195.6565 0002910 267.1564  92.9262 14.98321100 36637,6950.22,96.108,574.108,570.063,0.0
55418.0,STARLINK-5030,PAYLOAD,2023-09-21 05:49:22,14.98322002,0.0002763,70.0015,194.8154,265.0374,95.047,-0.0001029,-1.32e-05,0.0,0 STARLINK-5030,1 55418U 23014AD  23264.24262717 -.00001320  00000-0 -10290-3 0  9994,2 55418  70.0015 194.8154 0002763 265.0374  95.0470 14.98322002 36684,6950.218,96.108,574.003,570.162,0.0
55418.0,STARLINK-5030,PAYLOAD,2023-09-21 21:50:42,14.98329313,0.0002771,70.0019,193.1321,273.4494,86.6348,9.3081e-05,1.018e-05,0.0,0 STARLINK-5030,1 55418U 23014AD  23264.91021783  .00001018  00000-0  93081-4 0  9996,2 55418  70.0019 193.1321 0002771 273.4494  86.6348 14.98329313 36784,6950.195,96.107,573.986,570.134,0.0
55418.0,STARLINK-5030,PAYLOAD,2023-09-22 01:02:58,14.98330724,0.0002749,70.0018,192.7954,269.4033,90.6811,9.108e-05,9.94e-06,0.0,0 STARLINK-5030,1 55418U 23014AD  23265.04373713  .00000994  00000-0  91080-4 0  9993,2 55418  70.0018 192.7954 0002749 269.4033  90.6811 14.98330724 35865,6950.191,96.107,573.966,570.145,0.0
55418.0,STARLINK-5030,PAYLOAD,2023-09-22 05:51:22,14.98339765,0.000268,70.0018,192.2903,275.539,84.5463,0.00017641,2.013e-05,0.0,0 STARLINK-5030,1 55418U 23014AD  23265.24400894  .00002013  00000-0  17641-3 0  9990,2 55418  70.0018 192.2903 0002680 275.5390  84.5463 14.98339765 35894,6950.163,96.106,573.89,570.165,0.0
